STARLINK-37043          
1 68246U 26054Q   26084.91667824 -.02069300  00000+0 -10250-1 0  9996
2 68246  53.1590 231.2394 0000554  61.4541 223.1262 15.84490405  2527
STARLINK-37044          
1 68247U 26054R   26084.91667824 -.02064642  00000+0 -10115-1 0  9991
2 68247  53.1590 231.2321 0000731  51.5438 236.6664 15.84706097  2522
STARLINK-36997          
1 68248U 26054S   26084.91667824 -.02060519  00000+0 -99852-2 0  9997
2 68248  53.1589 231.2246 0000716  59.1820 232.6153 15.84923336  2525
STARLINK-37141          
1 68249U 26054T   26084.91667824 -.02045097  00000+0 -97750-2 0  9997
2 68249  53.1589 231.2180 0000709  58.2860 236.8807 15.85179685  2601
STARLINK-37087          
1 68250U 26054U   26084.91667824 -.02043788  00000+0 -96646-2 0  9997
2 68250  53.1591 231.2106 0000860  54.0536 244.6273 15.85394547  2527
STARLINK-36274          
1 68251U 26054V   26084.91667824 -.02036480  00000+0 -95286-2 0  9998
2 68251  53.1589 231.2034 0000878  57.8615 244.3176 15.85598169  2562
STARLINK-37085          
1 68252U 26054W   26084.91667824 -.02028800  00000+0 -93803-2 0  9999
2 68252  53.1589 231.1963 0000792  56.3823 249.1319 15.85828958  2523
STARLINK-37086          
1 68253U 26054X   26084.91667824 -.02013630  00000+0 -91904-2 0  9995
2 68253  53.1587 231.1903 0000668  62.9795 245.7530 15.86068705  2523
STARLINK-37084          
1 68254U 26054Y   26084.91667824 -.01991337  00000+0 -88662-2 0  9991
2 68254  53.1586 231.1768 0000733  55.0345 260.0487 15.86533027  2524
STARLINK-37075          
1 68255U 26054Z   26084.91667824 -.02003613  00000+0 -90204-2 0  9999
2 68255  53.1588 231.1834 0000626  61.1395 250.6505 15.86329974  2525
STARLINK-36333          
1 68256U 26054AA  26084.91667824 -.01983402  00000+0 -87384-2 0  9997
2 68256  53.1584 231.1701 0000708  55.5125 262.8593 15.86732840  2560
STARLINK-36745          
1 68257U 26054AB  26084.91667824 -.01975976  00000+0 -85205-2 0  9995
2 68257  53.1585 231.1563 0000727  51.5507 273.1677 15.87152716  2522
