CCSDS_OMM_VERS = 2.0
CREATION_DATE  = 
ORIGINATOR     = 

OBJECT_NAME    = STARLINK-37043
OBJECT_ID      = 2026-054Q
CENTER_NAME    = EARTH
REF_FRAME      = TEME
TIME_SYSTEM    = UTC
MEAN_ELEMENT_THEORY = SGP/SGP4

EPOCH          = 2026-03-25T22:00:00.999936
MEAN_MOTION    = 15.84490405
ECCENTRICITY   = .00005547
INCLINATION    = 53.1590
RA_OF_ASC_NODE = 231.2394
ARG_OF_PERICENTER = 61.4541
MEAN_ANOMALY   = 223.1262

EPHEMERIS_TYPE = 0
CLASSIFICATION_TYPE = U
NORAD_CAT_ID   = 68246
ELEMENT_SET_NO = 999
REV_AT_EPOCH   = 252
BSTAR          = -.10249698E-1
MEAN_MOTION_DOT = -.20693E-1
MEAN_MOTION_DDOT = 0

CCSDS_OMM_VERS = 2.0
CREATION_DATE  = 
ORIGINATOR     = 

OBJECT_NAME    = STARLINK-37044
OBJECT_ID      = 2026-054R
CENTER_NAME    = EARTH
REF_FRAME      = TEME
TIME_SYSTEM    = UTC
MEAN_ELEMENT_THEORY = SGP/SGP4

EPOCH          = 2026-03-25T22:00:00.999936
MEAN_MOTION    = 15.84706097
ECCENTRICITY   = .00007315
INCLINATION    = 53.1590
RA_OF_ASC_NODE = 231.2321
ARG_OF_PERICENTER = 51.5438
MEAN_ANOMALY   = 236.6664

EPHEMERIS_TYPE = 0
CLASSIFICATION_TYPE = U
NORAD_CAT_ID   = 68247
ELEMENT_SET_NO = 999
REV_AT_EPOCH   = 252
BSTAR          = -.10114988E-1
MEAN_MOTION_DOT = -.2064642E-1
MEAN_MOTION_DDOT = 0

CCSDS_OMM_VERS = 2.0
CREATION_DATE  = 
ORIGINATOR     = 

OBJECT_NAME    = STARLINK-36997
OBJECT_ID      = 2026-054S
CENTER_NAME    = EARTH
REF_FRAME      = TEME
TIME_SYSTEM    = UTC
MEAN_ELEMENT_THEORY = SGP/SGP4

EPOCH          = 2026-03-25T22:00:00.999936
MEAN_MOTION    = 15.84923336
ECCENTRICITY   = .00007161
INCLINATION    = 53.1589
RA_OF_ASC_NODE = 231.2246
ARG_OF_PERICENTER = 59.1820
MEAN_ANOMALY   = 232.6153

EPHEMERIS_TYPE = 0
CLASSIFICATION_TYPE = U
NORAD_CAT_ID   = 68248
ELEMENT_SET_NO = 999
REV_AT_EPOCH   = 252
BSTAR          = -.99852329E-2
MEAN_MOTION_DOT = -.2060519E-1
MEAN_MOTION_DDOT = 0

CCSDS_OMM_VERS = 2.0
CREATION_DATE  = 
ORIGINATOR     = 

OBJECT_NAME    = STARLINK-37141
OBJECT_ID      = 2026-054T
CENTER_NAME    = EARTH
REF_FRAME      = TEME
TIME_SYSTEM    = UTC
MEAN_ELEMENT_THEORY = SGP/SGP4

EPOCH          = 2026-03-25T22:00:00.999936
MEAN_MOTION    = 15.85179685
ECCENTRICITY   = .00007099
INCLINATION    = 53.1589
RA_OF_ASC_NODE = 231.2180
ARG_OF_PERICENTER = 58.2860
MEAN_ANOMALY   = 236.8807

EPHEMERIS_TYPE = 0
CLASSIFICATION_TYPE = U
NORAD_CAT_ID   = 68249
ELEMENT_SET_NO = 999
REV_AT_EPOCH   = 260
BSTAR          = -.97750373E-2
MEAN_MOTION_DOT = -.2045097E-1
MEAN_MOTION_DDOT = 0

CCSDS_OMM_VERS = 2.0
CREATION_DATE  = 
ORIGINATOR     = 

OBJECT_NAME    = STARLINK-37087
OBJECT_ID      = 2026-054U
CENTER_NAME    = EARTH
REF_FRAME      = TEME
TIME_SYSTEM    = UTC
MEAN_ELEMENT_THEORY = SGP/SGP4

EPOCH          = 2026-03-25T22:00:00.999936
MEAN_MOTION    = 15.85394547
ECCENTRICITY   = .00008602
INCLINATION    = 53.1591
RA_OF_ASC_NODE = 231.2106
ARG_OF_PERICENTER = 54.0536
MEAN_ANOMALY   = 244.6273

EPHEMERIS_TYPE = 0
CLASSIFICATION_TYPE = U
NORAD_CAT_ID   = 68250
ELEMENT_SET_NO = 999
REV_AT_EPOCH   = 252
BSTAR          = -.966461E-2
MEAN_MOTION_DOT = -.2043788E-1
MEAN_MOTION_DDOT = 0

CCSDS_OMM_VERS = 2.0
CREATION_DATE  = 
ORIGINATOR     = 

OBJECT_NAME    = STARLINK-36274
OBJECT_ID      = 2026-054V
CENTER_NAME    = EARTH
REF_FRAME      = TEME
TIME_SYSTEM    = UTC
MEAN_ELEMENT_THEORY = SGP/SGP4

EPOCH          = 2026-03-25T22:00:00.999936
MEAN_MOTION    = 15.85598169
ECCENTRICITY   = .00008789
INCLINATION    = 53.1589
RA_OF_ASC_NODE = 231.2034
ARG_OF_PERICENTER = 57.8615
MEAN_ANOMALY   = 244.3176

EPHEMERIS_TYPE = 0
CLASSIFICATION_TYPE = U
NORAD_CAT_ID   = 68251
ELEMENT_SET_NO = 999
REV_AT_EPOCH   = 256
BSTAR          = -.95286045E-2
MEAN_MOTION_DOT = -.203648E-1
MEAN_MOTION_DDOT = 0

CCSDS_OMM_VERS = 2.0
CREATION_DATE  = 
ORIGINATOR     = 

OBJECT_NAME    = STARLINK-37085
OBJECT_ID      = 2026-054W
CENTER_NAME    = EARTH
REF_FRAME      = TEME
TIME_SYSTEM    = UTC
MEAN_ELEMENT_THEORY = SGP/SGP4

EPOCH          = 2026-03-25T22:00:00.999936
MEAN_MOTION    = 15.85828958
ECCENTRICITY   = .00007924
INCLINATION    = 53.1589
RA_OF_ASC_NODE = 231.1963
ARG_OF_PERICENTER = 56.3823
MEAN_ANOMALY   = 249.1319

EPHEMERIS_TYPE = 0
CLASSIFICATION_TYPE = U
NORAD_CAT_ID   = 68252
ELEMENT_SET_NO = 999
REV_AT_EPOCH   = 252
BSTAR          = -.9380279E-2
MEAN_MOTION_DOT = -.20288E-1
MEAN_MOTION_DDOT = 0

CCSDS_OMM_VERS = 2.0
CREATION_DATE  = 
ORIGINATOR     = 

OBJECT_NAME    = STARLINK-37086
OBJECT_ID      = 2026-054X
CENTER_NAME    = EARTH
REF_FRAME      = TEME
TIME_SYSTEM    = UTC
MEAN_ELEMENT_THEORY = SGP/SGP4

EPOCH          = 2026-03-25T22:00:00.999936
MEAN_MOTION    = 15.86068705
ECCENTRICITY   = .00006684
INCLINATION    = 53.1587
RA_OF_ASC_NODE = 231.1903
ARG_OF_PERICENTER = 62.9795
MEAN_ANOMALY   = 245.7530

EPHEMERIS_TYPE = 0
CLASSIFICATION_TYPE = U
NORAD_CAT_ID   = 68253
ELEMENT_SET_NO = 999
REV_AT_EPOCH   = 252
BSTAR          = -.91903579E-2
MEAN_MOTION_DOT = -.201363E-1
MEAN_MOTION_DDOT = 0

CCSDS_OMM_VERS = 2.0
CREATION_DATE  = 
ORIGINATOR     = 

OBJECT_NAME    = STARLINK-37084
OBJECT_ID      = 2026-054Y
CENTER_NAME    = EARTH
REF_FRAME      = TEME
TIME_SYSTEM    = UTC
MEAN_ELEMENT_THEORY = SGP/SGP4

EPOCH          = 2026-03-25T22:00:00.999936
MEAN_MOTION    = 15.86533027
ECCENTRICITY   = .00007335
INCLINATION    = 53.1586
RA_OF_ASC_NODE = 231.1768
ARG_OF_PERICENTER = 55.0345
MEAN_ANOMALY   = 260.0487

EPHEMERIS_TYPE = 0
CLASSIFICATION_TYPE = U
NORAD_CAT_ID   = 68254
ELEMENT_SET_NO = 999
REV_AT_EPOCH   = 252
BSTAR          = -.88662306E-2
MEAN_MOTION_DOT = -.1991337E-1
MEAN_MOTION_DDOT = 0

CCSDS_OMM_VERS = 2.0
CREATION_DATE  = 
ORIGINATOR     = 

OBJECT_NAME    = STARLINK-37075
OBJECT_ID      = 2026-054Z
CENTER_NAME    = EARTH
REF_FRAME      = TEME
TIME_SYSTEM    = UTC
MEAN_ELEMENT_THEORY = SGP/SGP4

EPOCH          = 2026-03-25T22:00:00.999936
MEAN_MOTION    = 15.86329974
ECCENTRICITY   = .00006268
INCLINATION    = 53.1588
RA_OF_ASC_NODE = 231.1834
ARG_OF_PERICENTER = 61.1395
MEAN_ANOMALY   = 250.6505

EPHEMERIS_TYPE = 0
CLASSIFICATION_TYPE = U
NORAD_CAT_ID   = 68255
ELEMENT_SET_NO = 999
REV_AT_EPOCH   = 252
BSTAR          = -.90203823E-2
MEAN_MOTION_DOT = -.2003613E-1
MEAN_MOTION_DDOT = 0

CCSDS_OMM_VERS = 2.0
CREATION_DATE  = 
ORIGINATOR     = 

OBJECT_NAME    = STARLINK-36333
OBJECT_ID      = 2026-054AA
CENTER_NAME    = EARTH
REF_FRAME      = TEME
TIME_SYSTEM    = UTC
MEAN_ELEMENT_THEORY = SGP/SGP4

EPOCH          = 2026-03-25T22:00:00.999936
MEAN_MOTION    = 15.86732840
ECCENTRICITY   = .00007082
INCLINATION    = 53.1584
RA_OF_ASC_NODE = 231.1701
ARG_OF_PERICENTER = 55.5125
MEAN_ANOMALY   = 262.8593

EPHEMERIS_TYPE = 0
CLASSIFICATION_TYPE = U
NORAD_CAT_ID   = 68256
ELEMENT_SET_NO = 999
REV_AT_EPOCH   = 256
BSTAR          = -.87384167E-2
MEAN_MOTION_DOT = -.1983402E-1
MEAN_MOTION_DDOT = 0

CCSDS_OMM_VERS = 2.0
CREATION_DATE  = 
ORIGINATOR     = 

OBJECT_NAME    = STARLINK-36745
OBJECT_ID      = 2026-054AB
CENTER_NAME    = EARTH
REF_FRAME      = TEME
TIME_SYSTEM    = UTC
MEAN_ELEMENT_THEORY = SGP/SGP4

EPOCH          = 2026-03-25T22:00:00.999936
MEAN_MOTION    = 15.87152716
ECCENTRICITY   = .0000727
INCLINATION    = 53.1585
RA_OF_ASC_NODE = 231.1563
ARG_OF_PERICENTER = 51.5507
MEAN_ANOMALY   = 273.1677

EPHEMERIS_TYPE = 0
CLASSIFICATION_TYPE = U
NORAD_CAT_ID   = 68257
ELEMENT_SET_NO = 999
REV_AT_EPOCH   = 252
BSTAR          = -.85204702E-2
MEAN_MOTION_DOT = -.1975976E-1
MEAN_MOTION_DDOT = 0

